GPS BIIA-23 (PRN 18)    
1 22877U 93068A   18212.46403140 -.00000034  00000-0  00000+0 0  9995
2 22877  54.4551  81.6865 0146263  75.9670 253.8168  2.00567725181436
GPS BIIR-2  (PRN 13)    
1 24876U 97035A   18211.90154228  .00000059  00000-0  00000+0 0  9998
2 24876  55.4863 211.0520 0030645  86.6080 273.7498  2.00564653154020
GPS BIIR-3  (PRN 11)    
1 25933U 99055A   18212.46732219 -.00000052  00000-0  00000+0 0  9995
2 25933  51.9183  59.7606 0167928 102.8089 232.1307  2.00566282137858
GPS BIIR-4  (PRN 20)    
1 26360U 00025A   18212.32557368  .00000004  00000-0  00000+0 0  9990
2 26360  53.2138 137.8267 0038681 119.7428 159.8181  2.00563463133541
GPS BIIR-5  (PRN 28)    
1 26407U 00040A   18212.48465015 -.00000058  00000-0  00000+0 0  9993
2 26407  56.4562 329.1648 0197188 272.9509  99.6769  2.00562880132227
GPS BIIR-6  (PRN 14)    
1 26605U 00071A   18212.33913567  .00000062  00000-0  00000+0 0  9995
2 26605  55.0597 208.6091 0102801 249.0193 284.4986  2.00570863129811
GPS BIIR-8  (PRN 16)    
1 27663U 03005A   18212.28560052 -.00000058  00000-0  00000+0 0  9997
2 27663  56.5201 328.9322 0098649  28.8919 320.1212  2.00564396113581
GPS BIIR-9  (PRN 21)    
1 27704U 03010A   18212.10635894 -.00000035  00000-0  00000+0 0  9992
2 27704  54.1259  81.2733 0245526 271.8047 267.1252  2.00565125112370
GPS BIIR-10 (PRN 22)    
1 28129U 03058A   18212.09582420  .00000005  00000-0  00000+0 0  9996
2 28129  53.0269 140.6826 0074591 273.7935  85.3547  2.00553764107077
GPS BIIR-11 (PRN 19)    
1 28190U 04009A   18211.90645926 -.00000059  00000-0  00000-0 0  9992
2 28190  56.1890  29.7804 0096129  70.8734 150.9100  2.00558666105254
GPS BIIR-12 (PRN 23)    
1 28361U 04023A   18212.53196111  .00000060  00000-0  00000+0 0  9995
2 28361  54.0617 203.2970 0128252 226.7348   3.2442  2.00553404103349
GPS BIIR-13 (PRN 02)    
1 28474U 04045A   18212.19589080 -.00000035  00000-0  00000+0 0  9990
2 28474  54.4933  80.9003 0181542 254.6802  91.9433  2.00550716100706
GPS BIIRM-1 (PRN 17)    
1 28874U 05038A   18212.06353914 -.00000060  00000-0  00000+0 0  9996
2 28874  56.3284  27.0897 0126394 258.3062 101.1424  2.00573699 94101
GPS BIIRM-2 (PRN 31)    
1 29486U 06042A   18212.33961028  .00000019  00000-0  00000+0 0  9996
2 29486  55.1553 265.8997 0088173 351.3992 130.8882  2.00559659 86825
GPS BIIRM-3 (PRN 12)    
1 29601U 06052A   18212.11116117 -.00000058  00000-0  00000+0 0  9997
2 29601  56.4964 327.8556 0069187  56.7854 303.8994  2.00578586 85736
GPS BIIRM-4 (PRN 15)    
1 32260U 07047A   18211.93715770  .00000052  00000-0  00000+0 0  9999
2 32260  53.1861 199.3039 0102964  38.5987 322.1182  2.00550014 79119
GPS BIIRM-5 (PRN 29)    
1 32384U 07062A   18212.49965990 -.00000057  00000-0  00000+0 0  9992
2 32384  56.4036  27.6853 0006123  80.4939 102.1009  2.00566238 77854
GPS BIIRM-6 (PRN 07)    
1 32711U 08012A   18212.34374358  .00000019  00000-0  00000+0 0  9995
2 32711  54.8899 265.1675 0121002 217.2063 142.0323  2.00566361 76038
GPS BIIRM-8 (PRN 05)    
1 35752U 09043A   18212.19035354  .00000010  00000-0  00000+0 0  9992
2 35752  54.3300 142.9274 0053906  34.9924 242.7236  2.00553993 65612
GPS BIIF-1  (PRN 25)    
1 36585U 10022A   18211.73863302 -.00000058  00000-0  00000+0 0  9990
2 36585  55.7857 324.4009 0072803  48.7447   7.5199  2.00570951 59859
GPS BIIF-2  (PRN 01)    
1 37753U 11036A   18212.46715031 -.00000030  00000-0  00000+0 0  9990
2 37753  55.6922  84.4691 0078908  37.0567 271.1273  2.00564629 51551
GPS BIIF-3  (PRN 24)    
1 38833U 12053A   18212.02551298  .00000022  00000-0  00000+0 0  9995
2 38833  53.9209 261.6943 0069304  29.0445 331.4227  2.00567626 42611
GPS BIIF-4  (PRN 27)    
1 39166U 13023A   18211.88472315 -.00000063  00000-0  00000+0 0  9994
2 39166  56.0239  23.9788 0059191  24.0409 336.2584  2.00562301 38149
GPS BIIF-5  (PRN 30)    
1 39533U 14008A   18211.88480382  .00000015  00000-0  00000+0 0  9995
2 39533  54.0637 267.0562 0036369 191.1318 168.8723  2.00559286 32501
GPS BIIF-6  (PRN 06)    
1 39741U 14026A   18211.66371688 -.00000031  00000-0  00000+0 0  9999
2 39741  55.6748  84.0240 0012282 294.3295  65.6235  2.00564064 30780
GPS BIIF-7  (PRN 09)    
1 40105U 14045A   18212.25227616  .00000059  00000-0  00000+0 0  9992
2 40105  54.5878 203.4368 0006848 108.8018 251.2659  2.00574878 29245
GPS BIIF-8  (PRN 03)    
1 40294U 14068A   18212.12768907  .00000012  00000-0  00000+0 0  9994
2 40294  55.0813 144.2311 0014878  22.4440 337.6165  2.00559311 27469
GPS BIIF-9  (PRN 26)    
1 40534U 15013A   18212.26197143 -.00000057  00000-0  00000+0 0  9995
2 40534  54.7248 323.0557 0027890   1.0188 359.0186  2.00561107 24535
GPS BIIF-10  (PRN 08)   
1 40730U 15033A   18212.42378812 -.00000061  00000-0  00000+0 0  9992
2 40730  55.5538  23.4434 0035524 333.7087  26.1346  2.00572239 22294
GPS BIIF-11  (PRN 10)   
1 41019U 15062A   18211.97623303  .00000011  00000-0  00000+0 0  9996
2 41019  55.0858 144.0414 0037537 204.7273 155.0882  2.00564478 20104
GPS BIIF-12  (PRN 32)   
1 41328U 16007A   18212.06408396  .00000058  00000-0  00000+0 0  9994
2 41328  54.8375 203.7466 0024300 219.8102 140.0055  2.00561566 18164
